CCSDS_OMM_VERS = 2.0
CREATION_DATE  = 
ORIGINATOR     = 

OBJECT_NAME    = KUIPER-00209
OBJECT_ID      = 2026-030N
CENTER_NAME    = EARTH
REF_FRAME      = TEME
TIME_SYSTEM    = UTC
MEAN_ELEMENT_THEORY = SGP/SGP4

EPOCH          = 2026-03-01T20:00:01.999008
MEAN_MOTION    = 15.31441883
ECCENTRICITY   = .0013659
INCLINATION    = 51.8817
RA_OF_ASC_NODE = 257.3348
ARG_OF_PERICENTER = 41.8749
MEAN_ANOMALY   = 234.0795

EPHEMERIS_TYPE = 0
CLASSIFICATION_TYPE = U
NORAD_CAT_ID   = 67776
ELEMENT_SET_NO = 999
REV_AT_EPOCH   = 327
BSTAR          = .76171E-3
MEAN_MOTION_DOT = .23235E-3
MEAN_MOTION_DDOT = 0

CCSDS_OMM_VERS = 2.0
CREATION_DATE  = 
ORIGINATOR     = 

OBJECT_NAME    = KUIPER-00213
OBJECT_ID      = 2026-030P
CENTER_NAME    = EARTH
REF_FRAME      = TEME
TIME_SYSTEM    = UTC
MEAN_ELEMENT_THEORY = SGP/SGP4

EPOCH          = 2026-03-01T20:19:40.039680
MEAN_MOTION    = 15.32533524
ECCENTRICITY   = .0014359
INCLINATION    = 51.8798
RA_OF_ASC_NODE = 257.2450
ARG_OF_PERICENTER = 40.8723
MEAN_ANOMALY   = 319.3336

EPHEMERIS_TYPE = 0
CLASSIFICATION_TYPE = U
NORAD_CAT_ID   = 67777
ELEMENT_SET_NO = 999
REV_AT_EPOCH   = 388
BSTAR          = .78893E-3
MEAN_MOTION_DOT = .24938E-3
MEAN_MOTION_DDOT = 0

CCSDS_OMM_VERS = 2.0
CREATION_DATE  = 
ORIGINATOR     = 

OBJECT_NAME    = KUIPER-00214
OBJECT_ID      = 2026-030Q
CENTER_NAME    = EARTH
REF_FRAME      = TEME
TIME_SYSTEM    = UTC
MEAN_ELEMENT_THEORY = SGP/SGP4

EPOCH          = 2026-03-01T19:27:03.687840
MEAN_MOTION    = 15.36408537
ECCENTRICITY   = .0001222
INCLINATION    = 51.8837
RA_OF_ASC_NODE = 257.0175
ARG_OF_PERICENTER = 187.2029
MEAN_ANOMALY   = 172.8940

EPHEMERIS_TYPE = 0
CLASSIFICATION_TYPE = U
NORAD_CAT_ID   = 67778
ELEMENT_SET_NO = 999
REV_AT_EPOCH   = 388
BSTAR          = .99421E-3
MEAN_MOTION_DOT = .35638E-3
MEAN_MOTION_DDOT = 0

CCSDS_OMM_VERS = 2.0
CREATION_DATE  = 
ORIGINATOR     = 

OBJECT_NAME    = KUIPER-00215
OBJECT_ID      = 2026-030R
CENTER_NAME    = EARTH
REF_FRAME      = TEME
TIME_SYSTEM    = UTC
MEAN_ELEMENT_THEORY = SGP/SGP4

EPOCH          = 2026-03-01T20:03:24.770304
MEAN_MOTION    = 15.34079297
ECCENTRICITY   = .0009911
INCLINATION    = 51.8828
RA_OF_ASC_NODE = 257.1818
ARG_OF_PERICENTER = 37.6290
MEAN_ANOMALY   = 322.5387

EPHEMERIS_TYPE = 0
CLASSIFICATION_TYPE = U
NORAD_CAT_ID   = 67779
ELEMENT_SET_NO = 999
REV_AT_EPOCH   = 388
BSTAR          = .96295E-3
MEAN_MOTION_DOT = .3204E-3
MEAN_MOTION_DDOT = 0

CCSDS_OMM_VERS = 2.0
CREATION_DATE  = 
ORIGINATOR     = 

OBJECT_NAME    = KUIPER-00218
OBJECT_ID      = 2026-030S
CENTER_NAME    = EARTH
REF_FRAME      = TEME
TIME_SYSTEM    = UTC
MEAN_ELEMENT_THEORY = SGP/SGP4

EPOCH          = 2026-03-01T18:18:16.524000
MEAN_MOTION    = 15.34797697
ECCENTRICITY   = .0006238
INCLINATION    = 51.8818
RA_OF_ASC_NODE = 257.4414
ARG_OF_PERICENTER = 30.8451
MEAN_ANOMALY   = 329.2900

EPHEMERIS_TYPE = 0
CLASSIFICATION_TYPE = U
NORAD_CAT_ID   = 67780
ELEMENT_SET_NO = 999
REV_AT_EPOCH   = 387
BSTAR          = .18293E-3
MEAN_MOTION_DOT = .5891E-4
MEAN_MOTION_DDOT = 0

CCSDS_OMM_VERS = 2.0
CREATION_DATE  = 
ORIGINATOR     = 

OBJECT_NAME    = KUIPER-00220
OBJECT_ID      = 2026-030T
CENTER_NAME    = EARTH
REF_FRAME      = TEME
TIME_SYSTEM    = UTC
MEAN_ELEMENT_THEORY = SGP/SGP4

EPOCH          = 2026-03-01T19:59:25.057824
MEAN_MOTION    = 15.34370001
ECCENTRICITY   = .0008062
INCLINATION    = 51.8795
RA_OF_ASC_NODE = 257.1558
ARG_OF_PERICENTER = 35.0350
MEAN_ANOMALY   = 325.1164

EPHEMERIS_TYPE = 0
CLASSIFICATION_TYPE = U
NORAD_CAT_ID   = 67781
ELEMENT_SET_NO = 999
REV_AT_EPOCH   = 388
BSTAR          = .74545E-3
MEAN_MOTION_DOT = .24912E-3
MEAN_MOTION_DDOT = 0

CCSDS_OMM_VERS = 2.0
CREATION_DATE  = 
ORIGINATOR     = 

OBJECT_NAME    = KUIPER-00222
OBJECT_ID      = 2026-030U
CENTER_NAME    = EARTH
REF_FRAME      = TEME
TIME_SYSTEM    = UTC
MEAN_ELEMENT_THEORY = SGP/SGP4

EPOCH          = 2026-03-01T20:24:22.635072
MEAN_MOTION    = 15.32398796
ECCENTRICITY   = .0017565
INCLINATION    = 51.8802
RA_OF_ASC_NODE = 257.2653
ARG_OF_PERICENTER = 38.7694
MEAN_ANOMALY   = 321.4547

EPHEMERIS_TYPE = 0
CLASSIFICATION_TYPE = U
NORAD_CAT_ID   = 67782
ELEMENT_SET_NO = 999
REV_AT_EPOCH   = 388
BSTAR          = .32357E-3
MEAN_MOTION_DOT = .9955E-4
MEAN_MOTION_DDOT = 0

CCSDS_OMM_VERS = 2.0
CREATION_DATE  = 
ORIGINATOR     = 

OBJECT_NAME    = KUIPER-00223
OBJECT_ID      = 2026-030V
CENTER_NAME    = EARTH
REF_FRAME      = TEME
TIME_SYSTEM    = UTC
MEAN_ELEMENT_THEORY = SGP/SGP4

EPOCH          = 2026-03-01T20:07:28.777728
MEAN_MOTION    = 15.33874160
ECCENTRICITY   = .0012269
INCLINATION    = 51.8815
RA_OF_ASC_NODE = 257.1969
ARG_OF_PERICENTER = 37.6315
MEAN_ANOMALY   = 322.5526

EPHEMERIS_TYPE = 0
CLASSIFICATION_TYPE = U
NORAD_CAT_ID   = 67783
ELEMENT_SET_NO = 999
REV_AT_EPOCH   = 388
BSTAR          = .91231E-3
MEAN_MOTION_DOT = .30153E-3
MEAN_MOTION_DDOT = 0

CCSDS_OMM_VERS = 2.0
CREATION_DATE  = 
ORIGINATOR     = 

OBJECT_NAME    = KUIPER-00225
OBJECT_ID      = 2026-030W
CENTER_NAME    = EARTH
REF_FRAME      = TEME
TIME_SYSTEM    = UTC
MEAN_ELEMENT_THEORY = SGP/SGP4

EPOCH          = 2026-03-01T18:07:51.310272
MEAN_MOTION    = 15.35504065
ECCENTRICITY   = .0003632
INCLINATION    = 51.8797
RA_OF_ASC_NODE = 257.3904
ARG_OF_PERICENTER = 21.0714
MEAN_ANOMALY   = 339.0421

EPHEMERIS_TYPE = 0
CLASSIFICATION_TYPE = U
NORAD_CAT_ID   = 67784
ELEMENT_SET_NO = 999
REV_AT_EPOCH   = 387
BSTAR          = .72431E-3
MEAN_MOTION_DOT = .25078E-3
MEAN_MOTION_DDOT = 0

CCSDS_OMM_VERS = 2.0
CREATION_DATE  = 
ORIGINATOR     = 

OBJECT_NAME    = KUIPER-00226
OBJECT_ID      = 2026-030X
CENTER_NAME    = EARTH
REF_FRAME      = TEME
TIME_SYSTEM    = UTC
MEAN_ELEMENT_THEORY = SGP/SGP4

EPOCH          = 2026-03-01T19:03:14.143680
MEAN_MOTION    = 15.31445280
ECCENTRICITY   = .0020034
INCLINATION    = 51.8814
RA_OF_ASC_NODE = 257.6356
ARG_OF_PERICENTER = 49.4379
MEAN_ANOMALY   = 310.8346

EPHEMERIS_TYPE = 0
CLASSIFICATION_TYPE = U
NORAD_CAT_ID   = 67785
ELEMENT_SET_NO = 999
REV_AT_EPOCH   = 387
BSTAR          = .92311E-3
MEAN_MOTION_DOT = .28351E-3
MEAN_MOTION_DDOT = 0

CCSDS_OMM_VERS = 2.0
CREATION_DATE  = 
ORIGINATOR     = 

OBJECT_NAME    = KUIPER-00259
OBJECT_ID      = 2026-030Y
CENTER_NAME    = EARTH
REF_FRAME      = TEME
TIME_SYSTEM    = UTC
MEAN_ELEMENT_THEORY = SGP/SGP4

EPOCH          = 2026-03-01T19:54:38.013696
MEAN_MOTION    = 15.34695104
ECCENTRICITY   = .0008015
INCLINATION    = 51.8796
RA_OF_ASC_NODE = 257.1350
ARG_OF_PERICENTER = 28.0496
MEAN_ANOMALY   = 332.0920

EPHEMERIS_TYPE = 0
CLASSIFICATION_TYPE = U
NORAD_CAT_ID   = 67786
ELEMENT_SET_NO = 999
REV_AT_EPOCH   = 388
BSTAR          = .93068E-3
MEAN_MOTION_DOT = .31552E-3
MEAN_MOTION_DDOT = 0

CCSDS_OMM_VERS = 2.0
CREATION_DATE  = 
ORIGINATOR     = 

OBJECT_NAME    = KUIPER-00260
OBJECT_ID      = 2026-030Z
CENTER_NAME    = EARTH
REF_FRAME      = TEME
TIME_SYSTEM    = UTC
MEAN_ELEMENT_THEORY = SGP/SGP4

EPOCH          = 2026-03-01T19:32:25.242720
MEAN_MOTION    = 15.36065644
ECCENTRICITY   = .0000832
INCLINATION    = 51.8790
RA_OF_ASC_NODE = 257.0344
ARG_OF_PERICENTER = 85.2092
MEAN_ANOMALY   = 274.8990

EPHEMERIS_TYPE = 0
CLASSIFICATION_TYPE = U
NORAD_CAT_ID   = 67787
ELEMENT_SET_NO = 999
REV_AT_EPOCH   = 379
BSTAR          = .1004E-2
MEAN_MOTION_DOT = .35594E-3
MEAN_MOTION_DDOT = 0

