KUIPER-00209            
1 67776U 26030N   26060.83335647  .00023235  00000+0  76171-3 0  9996
2 67776  51.8817 257.3348 0013659  41.8749 234.0795 15.31441883  3274
KUIPER-00213            
1 67777U 26030P   26060.84699120  .00024938  00000+0  78893-3 0  9991
2 67777  51.8798 257.2450 0014359  40.8723 319.3336 15.32533524  3885
KUIPER-00214            
1 67778U 26030Q   26060.81045935  .00035638  00000+0  99421-3 0  9997
2 67778  51.8837 257.0175 0001222 187.2029 172.8940 15.36408537  3884
KUIPER-00215            
1 67779U 26030R   26060.83570336  .00032040  00000+0  96295-3 0  9998
2 67779  51.8828 257.1818 0009911  37.6290 322.5387 15.34079297  3885
KUIPER-00218            
1 67780U 26030S   26060.76269125  .00005891  00000+0  18293-3 0  9999
2 67780  51.8818 257.4414 0006238  30.8451 329.2900 15.34797697  3879
KUIPER-00220            
1 67781U 26030T   26060.83292891  .00024912  00000+0  74545-3 0  9991
2 67781  51.8795 257.1558 0008062  35.0350 325.1164 15.34370001  3886
KUIPER-00222            
1 67782U 26030U   26060.85026198  .00009955  00000+0  32357-3 0  9994
2 67782  51.8802 257.2653 0017565  38.7694 321.4547 15.32398796  3885
KUIPER-00223            
1 67783U 26030V   26060.83852752  .00030153  00000+0  91231-3 0  9996
2 67783  51.8815 257.1969 0012269  37.6315 322.5526 15.33874160  3887
KUIPER-00225            
1 67784U 26030W   26060.75545498  .00025078  00000+0  72431-3 0  9995
2 67784  51.8797 257.3904 0003632  21.0714 339.0421 15.35504065  3874
KUIPER-00226            
1 67785U 26030X   26060.79391370  .00028351  00000+0  92311-3 0  9994
2 67785  51.8814 257.6356 0020034  49.4379 310.8346 15.31445280  3877
KUIPER-00259            
1 67786U 26030Y   26060.82960664  .00031552  00000+0  93068-3 0  9994
2 67786  51.8796 257.1350 0008015  28.0496 332.0920 15.34695104  3884
KUIPER-00260            
1 67787U 26030Z   26060.81418105  .00035594  00000+0  10040-2 0  9990
2 67787  51.8790 257.0344 0000832  85.2092 274.8990 15.36065644  3799
